[{"OBJECT_NAME":"STARLINK-32958","OBJECT_ID":"2025-075R","EPOCH":"2026-03-09T22:13:13.515168","MEAN_MOTION":15.2759075,"ECCENTRICITY":4.734e-5,"INCLINATION":42.993,"RA_OF_ASC_NODE":269.2857,"ARG_OF_PERICENTER":184.2801,"MEAN_ANOMALY":175.8047,"EPHEMERIS_TYPE":0,"CLASSIFICATION_TYPE":"U","NORAD_CAT_ID":63563,"ELEMENT_SET_NO":999,"REV_AT_EPOCH":5196,"BSTAR":0.0010360954,"MEAN_MOTION_DOT":0.00028368,"MEAN_MOTION_DDOT":0},{"OBJECT_NAME":"CZ-6A DEB","OBJECT_ID":"2022-151DE","EPOCH":"2026-03-09T09:45:43.657920","MEAN_MOTION":15.34292219,"ECCENTRICITY":0.00393756,"INCLINATION":99.0022,"RA_OF_ASC_NODE":218.5596,"ARG_OF_PERICENTER":192.6197,"MEAN_ANOMALY":167.4059,"EPHEMERIS_TYPE":0,"CLASSIFICATION_TYPE":"U","NORAD_CAT_ID":54359,"ELEMENT_SET_NO":999,"REV_AT_EPOCH":10560,"BSTAR":0.0065240017,"MEAN_MOTION_DOT":0.00228186,"MEAN_MOTION_DDOT":0}]
